[{"OBJECT_NAME":"FLOCK 4Q-21","OBJECT_ID":"2023-174CB","EPOCH":"2026-03-09T16:54:09.057600","MEAN_MOTION":15.57402591,"ECCENTRICITY":0.00059277,"INCLINATION":97.3918,"RA_OF_ASC_NODE":160.0322,"ARG_OF_PERICENTER":156.3296,"MEAN_ANOMALY":203.8233,"EPHEMERIS_TYPE":0,"CLASSIFICATION_TYPE":"U","NORAD_CAT_ID":58329,"ELEMENT_SET_NO":999,"REV_AT_EPOCH":13049,"BSTAR":0.00065948974,"MEAN_MOTION_DOT":0.00048452,"MEAN_MOTION_DDOT":0},{"OBJECT_NAME":"AIST-2T 2","OBJECT_ID":"2025-313G","EPOCH":"2026-03-09T21:32:59.687520","MEAN_MOTION":15.60844796,"ECCENTRICITY":0.00108481,"INCLINATION":97.0913,"RA_OF_ASC_NODE":146.4999,"ARG_OF_PERICENTER":225.895,"MEAN_ANOMALY":134.1416,"EPHEMERIS_TYPE":0,"CLASSIFICATION_TYPE":"U","NORAD_CAT_ID":67254,"ELEMENT_SET_NO":999,"REV_AT_EPOCH":1112,"BSTAR":0.0018608584,"MEAN_MOTION_DOT":0.0015826,"MEAN_MOTION_DDOT":0}]
